{
    "links": {
        "self": "http://www.neowsapp.com/rest/v1/neo/54016665?api_key=iIulBulltgU6a56xZRHN4H3l9WmuAYTsLGpBGhQ2"
    },
    "id": "54016665",
    "neo_reference_id": "54016665",
    "name": "(2020 HE3)",
    "designation": "2020 HE3",
    "nasa_jpl_url": "http://ssd.jpl.nasa.gov/sbdb.cgi?sstr=54016665",
    "absolute_magnitude_h": 22.98,
    "estimated_diameter": {
        "kilometers": {
            "estimated_diameter_min": 0.067383719,
            "estimated_diameter_max": 0.1506745763
        },
        "meters": {
            "estimated_diameter_min": 67.3837189986,
            "estimated_diameter_max": 150.6745762577
        },
        "miles": {
            "estimated_diameter_min": 0.0418702889,
            "estimated_diameter_max": 0.0936248121
        },
        "feet": {
            "estimated_diameter_min": 221.0752006395,
            "estimated_diameter_max": 494.3391767693
        }
    },
    "is_potentially_hazardous_asteroid": false,
    "close_approach_data": [
        {
            "close_approach_date": "2012-10-25",
            "close_approach_date_full": "2012-Oct-25 06:53",
            "epoch_date_close_approach": 1351147980000,
            "relative_velocity": {
                "kilometers_per_second": "13.7521062513",
                "kilometers_per_hour": "49507.5825046296",
                "miles_per_hour": "30762.0864735017"
            },
            "miss_distance": {
                "astronomical": "0.3078959343",
                "lunar": "119.7715184427",
                "kilometers": "46060575.952939941",
                "miles": "28620714.7369795458"
            },
            "orbiting_body": "Earth"
        },
        {
            "close_approach_date": "2016-05-04",
            "close_approach_date_full": "2016-May-04 13:12",
            "epoch_date_close_approach": 1462367520000,
            "relative_velocity": {
                "kilometers_per_second": "16.0687421185",
                "kilometers_per_hour": "57847.4716265485",
                "miles_per_hour": "35944.1692448407"
            },
            "miss_distance": {
                "astronomical": "0.4951433094",
                "lunar": "192.6107473566",
                "kilometers": "74072384.430990978",
                "miles": "46026445.4107843764"
            },
            "orbiting_body": "Earth"
        },
        {
            "close_approach_date": "2020-04-21",
            "close_approach_date_full": "2020-Apr-21 19:39",
            "epoch_date_close_approach": 1587497940000,
            "relative_velocity": {
                "kilometers_per_second": "13.9757824934",
                "kilometers_per_hour": "50312.8169764049",
                "miles_per_hour": "31262.4278595889"
            },
            "miss_distance": {
                "astronomical": "0.1962485716",
                "lunar": "76.3406943524",
                "kilometers": "29358368.301902492",
                "miles": "18242444.1494267096"
            },
            "orbiting_body": "Earth"
        },
        {
            "close_approach_date": "2023-11-06",
            "close_approach_date_full": "2023-Nov-06 05:36",
            "epoch_date_close_approach": 1699248960000,
            "relative_velocity": {
                "kilometers_per_second": "13.8726745575",
                "kilometers_per_hour": "49941.6284070065",
                "miles_per_hour": "31031.7857176758"
            },
            "miss_distance": {
                "astronomical": "0.3265479002",
                "lunar": "127.0271331778",
                "kilometers": "48850870.322892574",
                "miles": "30354523.2606985612"
            },
            "orbiting_body": "Earth"
        }
    ],
    "orbital_data": {
        "orbit_id": "5",
        "orbit_determination_date": "2020-05-03 06:05:49",
        "first_observation_date": "2020-04-18",
        "last_observation_date": "2020-04-28",
        "data_arc_in_days": 10,
        "observations_used": 38,
        "orbit_uncertainty": "8",
        "minimum_orbit_intersection": ".162372",
        "jupiter_tisserand_invariant": "5.085",
        "epoch_osculation": "2458960.5",
        "eccentricity": ".06184336735834212",
        "semi_major_axis": "1.232902466324779",
        "inclination": "27.20646603637533",
        "ascending_node_longitude": "34.09517887113317",
        "orbital_period": "500.0247586592002",
        "perihelion_distance": "1.15665562618285",
        "perihelion_argument": "145.8273336029867",
        "aphelion_distance": "1.309149306466709",
        "perihelion_time": "2458929.171417164565",
        "mean_anomaly": "22.55546275548226",
        "mean_motion": ".7199643492960789",
        "equinox": "J2000",
        "orbit_class": {
            "orbit_class_type": "AMO",
            "orbit_class_description": "Near-Earth asteroid orbits similar to that of 1221 Amor",
            "orbit_class_range": "1.017 AU < q (perihelion) < 1.3 AU"
        }
    },
    "is_sentry_object": false
}